ONEWEB-0710             
1 55173U 23004AK  23325.55632049 -.00000065  00000+0 -20034-3 0  9993
2 55173  87.9227 192.4794 0001646  86.5248 273.6071 13.17649611 43972
ONEWEB-0711             
1 55174U 23004AL  23325.42008117  .00000044  00000+0  88551-4 0  9997
2 55174  87.9008 207.6052 0002635  77.4658 282.6765 13.11418313 42795
ONEWEB-0713             
1 55175U 23004AM  23325.43792824  .00000470  00000+0  12905-2 0  9995
2 55175  87.9004 207.6096 0002042  74.2885 285.8468 13.11416186 42789
ONEWEB-0715             
1 55176U 23004AN  23325.43304203 -.00000154  00000+0 -46940-3 0  9994
2 55176  87.8988 207.6156 0001890  69.4145 290.7185 13.11416449 42820
ONEWEB-0716             
1 55177U 23004AP  23325.54998523 -.00000054  00000+0 -17205-3 0  9992
2 55177  87.9208 192.4755 0001325  69.2430 290.8843 13.17649103 43971
ONEWEB-0717             
1 55178U 23004AQ  23325.38122866 -.00000018  00000+0 -80590-4 0  9992
2 55178  87.9226 192.4688 0002530  92.5193 267.6228 13.17650276 44008
ONEWEB-0719             
1 55179U 23004AR  23325.39178577  .00000049  00000+0  92018-4 0  9994
2 55179  87.9226 192.4538 0001789  70.2989 289.8335 13.17645428 43955
ONEWEB-0530             
1 55796U 23029A   23325.46436205  .00000022  00000+0  22259-4 0  9990
2 55796  87.9181 101.3418 0002234  91.2030 268.9359 13.20773397 37231
